CCSDS_OEM_VERS = 2.0
CREATION_DATE = 2024-10-02T03:00:54.884000000
ORIGINATOR = NONE

META_START
OBJECT_NAME = _SCPACE_OEM
OBJECT_ID = 1
CENTER_NAME = EARTH
REF_FRAME = EME2000
TIME_SYSTEM = UTC
START_TIME = 2024-09-30T16:00:00.000000000
STOP_TIME = 2024-10-02T00:00:00.000000000
INTERPOLATION = LAGRANGE
INTERPOLATION_DEGREE = 8
META_STOP

2024-10-01T13:51:00.000000000  1.509262029091259e+03  1.754519566506527e+03  6.653346551984256e+03  6.621102892138741e+00  2.783422213310621e+00 -2.230793163944929e+00
2024-10-01T13:52:00.000000000  1.903175214625074e+03  1.917827734373163e+03  6.505964966922237e+03  6.504857319778148e+00  2.658324860144746e+00 -2.680256089093241e+00
2024-10-01T13:53:00.000000000  2.289313308904086e+03  2.073301096363317e+03  6.331934100784136e+03  6.362020169350624e+00  2.522350204025992e+00 -3.118799546208260e+00
2024-10-01T13:54:00.000000000  2.666097483015095e+03  2.220303292598801e+03  6.131963160647259e+03  6.193165205130857e+00  2.376048306049166e+00 -3.544630201981076e+00
2024-10-01T13:55:00.000000000  3.031986537995088e+03  2.358232263849263e+03  5.906867516992100e+03  5.998972687587785e+00  2.220012099749330e+00 -3.956003907738332e+00
2024-10-01T13:56:00.000000000  3.385483252450887e+03  2.486522762953435e+03  5.657565491055955e+03  5.780226877755979e+00  2.054874948684772e+00 -4.351233375158775e+00
2024-10-01T13:57:00.000000000  3.725140575715862e+03  2.604648716294862e+03  5.385074706840508e+03  5.537812853446824e+00  1.881308164516500e+00 -4.728694836243005e+00
2024-10-01T13:58:00.000000000  4.049567551723483e+03  2.712125416116395e+03  5.090508074134805e+03  5.272713874356763e+00  1.700018788973016e+00 -5.086834391989161e+00
2024-10-01T13:59:00.000000000  4.357434688397338e+03  2.808511478602103e+03  4.775069924646412e+03  4.986008677738876e+00  1.511747162420020e+00 -5.424174909338555e+00
2024-10-01T14:00:00.000000000  4.647480299386457e+03  2.893410953808969e+03  4.440050389060642e+03  4.678866165516424e+00  1.317263167405007e+00 -5.739323864989550e+00
2024-10-01T14:01:00.000000000  4.918515383018450e+03  2.966474865363632e+03  4.086820477148658e+03  4.352540686100231e+00  1.117363154968021e+00 -6.030978345234101e+00
2024-10-01T14:02:00.000000000  5.169428594915255e+03  3.027402736362196e+03  3.716826673808542e+03  4.008367960089402e+00  9.128670211672847e-01 -6.297930277697577e+00
2024-10-01T14:03:00.000000000  5.399191147915935e+03  3.075943890096122e+03  3.331584674551042e+03  3.647759958096610e+00  7.046147994650173e-01 -6.539072896507815e+00
2024-10-01T14:04:00.000000000  5.606860938908411e+03  3.111898579190525e+03  2.932673884590095e+03  3.272199143881758e+00  4.934634287190644e-01 -6.753405721513090e+00
2024-10-01T14:05:00.000000000  5.791586996927513e+03  3.135118926789832e+03  2.521729889998249e+03  2.883231391359256e+00  2.802827794720491e-01 -6.940039448024965e+00
2024-10-01T14:06:00.000000000  5.952612776311869e+03  3.145509522994482e+03  2.100438350557269e+03  2.482460641779543e+00  6.595244844770880e-02 -7.098199692488346e+00
2024-10-01T14:07:00.000000000  6.089279542327745e+03  3.143027930306016e+03  1.670527880008622e+03  2.071542275571532e+00 -1.486422011677102e-01 -7.227231447301027e+00
2024-10-01T14:08:00.000000000  6.201029140356484e+03  3.127684916790917e+03  1.233763028307498e+03  1.652175707723618e+00 -3.626142183997101e-01 -7.326602820622637e+00
2024-10-01T14:09:00.000000000  6.287406502332801e+03  3.099544358451150e+03  7.919364437541670e+02  1.226095939866931e+00 -5.750794277079594e-01 -7.395907527377282e+00
2024-10-01T14:10:00.000000000  6.348061715401688e+03  3.058723064952684e+03  3.468608798128959e+02  7.950654200136300e-01 -7.851602652743693e-01 -7.434866179040692e+00
2024-10-01T14:11:00.000000000  6.382751057863751e+03  3.005390142253252e+03 -9.963772500794681e+01  3.608670383895756e-01 -9.919891890042034e-01 -7.443327857270041e+00
2024-10-01T14:12:00.000000000  6.391338308308042e+03  2.939766410543526e+03 -5.457282639774503e+02 -7.470433317955705e-02 -1.194712890136526e+00 -7.421270544837570e+00
2024-10-01T14:13:00.000000000  6.373795052237470e+03  2.862123331108487e+03 -9.895821694136984e+02 -5.098498328447052e-01 -1.392496131453851e+00 -7.368800675710045e+00
2024-10-01T14:14:00.000000000  6.330200768045709e+03  2.772781889415625e+03 -1.429380992851773e+03 -9.427738292261248e-01 -1.584525056460572e+00 -7.286152481739385e+00
2024-10-01T14:15:00.000000000  6.260742330898591e+03  2.672111131458467e+03 -1.863324274431842e+03 -1.371692066986388e+00 -1.770011148154033e+00 -7.173687630463274e+00
2024-10-01T14:16:00.000000000  6.165713211754023e+03  2.560526637686561e+03 -2.289636820323577e+03 -1.794840165256415e+00 -1.948195143511484e+00 -7.031893296522973e+00
2024-10-01T14:17:00.000000000  6.045512159950653e+03  2.438488633220973e+03 -2.706576301484387e+03 -2.210481813596335e+00 -2.118350185427814e+00 -6.861378618510307e+00
2024-10-01T14:18:00.000000000  5.900640075798275e+03  2.306499358612934e+03 -3.112441689451432e+03 -2.616917639982554e+00 -2.279785156034023e+00 -6.662871038845730e+00
2024-10-01T14:19:00.000000000  5.731699445790027e+03  2.165101939808555e+03 -3.505577838782432e+03 -3.012489458215126e+00 -2.431846214276535e+00 -6.437212878736324e+00
2024-10-01T14:20:00.000000000  5.539390570075354e+03  2.014877385438666e+03 -3.884383793868416e+03 -3.395588964630151e+00 -2.573920298326338e+00 -6.185356514292766e+00
2024-10-01T14:21:00.000000000  5.324508770174623e+03  1.856442326391687e+03 -4.247318639112182e+03 -3.764663480672296e+00 -2.705437058254537e+00 -5.908359796665019e+00
2024-10-01T14:22:00.000000000  5.087940710936261e+03  1.690446258924526e+03 -4.592908077622025e+03 -4.118222613970427e+00 -2.825871141847422e+00 -5.607380734204845e+00
2024-10-01T14:23:00.000000000  4.830660282442027e+03  1.517568694385177e+03 -4.919750357132762e+03 -4.454844237422169e+00 -2.934744210482307e+00 -5.283671328648124e+00
2024-10-01T14:24:00.000000000  4.553724799958029e+03  1.338516550488112e+03 -5.226521242120126e+03 -4.773178726992666e+00 -3.031626143720890e+00 -4.938571793835385e+00
2024-10-01T14:25:00.000000000  4.258269906721304e+03  1.154020882449189e+03 -5.511979746176420e+03 -5.071954027251842e+00 -3.116136322550109e+00 -4.573504233589274e+00
2024-10-01T14:26:00.000000000  3.945505372182571e+03  9.648342136466431e+02 -5.774972365346244e+03 -5.349979510660350e+00 -3.187944407780041e+00 -4.189967399231536e+00
2024-10-01T14:27:00.000000000  3.616709516393574e+03  7.717271681479871e+02 -6.014437802562793e+03 -5.606150733181901e+00 -3.246771570132146e+00 -3.789530308244105e+00
2024-10-01T14:28:00.000000000  3.273224539840676e+03  5.754856675858954e+02 -6.229410709512268e+03 -5.839453268808820e+00 -3.292391666205701e+00 -3.373826205840492e+00
2024-10-01T14:29:00.000000000  2.916450709470625e+03  3.769076269940251e+02 -6.419025453437745e+03 -6.048966744718627e+00 -3.324632066678397e+00 -2.944544450187554e+00
2024-10-01T14:30:00.000000000  2.547840499128039e+03  1.767996255165656e+02 -6.582519311780361e+03 -6.233866880703027e+00 -3.343373124313087e+00 -2.503422793346283e+00
2024-10-01T14:31:00.000000000  2.168893081497383e+03 -2.402605150444929e+01 -6.719235081328172e+03 -6.393426971758974e+00 -3.348547706713465e+00 -2.052242077477143e+00
2024-10-01T14:32:00.000000000  1.781148211662309e+03 -2.247546970821575e+02 -6.828623579486313e+03 -6.527020811698937e+00 -3.340141742130181e+00 -1.592819961441231e+00
2024-10-01T14:33:00.000000000  1.386180043585569e+03 -4.245724107608099e+02 -6.910245603253865e+03 -6.634124755598599e+00 -3.318194187318437e+00 -1.127002932370817e+00
2024-10-01T14:34:00.000000000  9.855911587710060e+02 -6.226691467593206e+02 -6.963773425291154e+03 -6.714317834645640e+00 -3.282795999938929e+00 -6.566598840091209e-01
2024-10-01T14:35:00.000000000  5.810061850919845e+02 -8.182419172660207e+02 -6.988991976987822e+03 -6.767282917866570e+00 -3.234089982304836e+00 -1.836773017295789e-01
2024-10-01T14:36:00.000000000  1.740656500224556e+02 -1.010497854401839e+03 -6.985799794022329e+03 -6.792809389541206e+00 -3.172271412468172e+00  2.900469489734397e-01
2024-10-01T14:37:00.000000000 -2.335804761058861e+02 -1.198657348862942e+03 -6.954209438756772e+03 -6.790794681384978e+00 -3.097587369786687e+00  7.626125019728404e-01
2024-10-01T14:38:00.000000000 -6.402792272991206e+02 -1.381957085675152e+03 -6.894347334554957e+03 -6.761243575154323e+00 -3.010334785661929e+00  1.232124237063253e+00
2024-10-01T14:39:00.000000000 -1.044381285020329e+03 -1.559653112785528e+03 -6.806453268765894e+03 -6.704267395833132e+00 -2.910859167184249e+00  1.696698130661431e+00
2024-10-01T14:40:00.000000000 -1.444247120433119e+03 -1.731023614119967e+03 -6.690879668107202e+03 -6.620084288608064e+00 -2.799554277480137e+00  2.154466910189632e+00
2024-10-01T14:41:00.000000000 -1.838253607219682e+03 -1.895371848504997e+03 -6.548090264401501e+03 -6.509019422650277e+00 -2.676861102739632e+00  2.603587737864438e+00
2024-10-01T14:42:00.000000000 -2.224800096265674e+03 -2.052028823928780e+03 -6.378658622083926e+03 -6.371503956808257e+00 -2.543265919718291e+00  3.042249463120768e+00
2024-10-01T14:43:00.000000000 -2.602315221103046e+03 -2.200356135917130e+03 -6.183265520968609e+03 -6.208073014329673e+00 -2.399298201037015e+00  3.468679931364124e+00
2024-10-01T14:44:00.000000000 -2.969262837544731e+03 -2.339748432522240e+03 -5.962696729765806e+03 -6.019363889461960e+00 -2.245529194277086e+00  3.881151057821278e+00
2024-10-01T14:45:00.000000000 -3.324147885671433e+03 -2.469635778426054e+03 -5.717840442373376e+03 -5.806115557961435e+00 -2.082570629440882e+00  4.277984600147573e+00
2024-10-01T14:46:00.000000000 -3.665522673413303e+03 -2.589486106430155e+03 -5.449683848351798e+03 -5.569167492595557e+00 -1.911072593416356e+00  4.657560125936063e+00
2024-10-01T14:47:00.000000000 -3.991992841230270e+03 -2.698807447841526e+03 -5.159309414427888e+03 -5.309456475938005e+00 -1.731720885754864e+00  5.018322572183628e+00
